{"type": "FeatureCollection", "features": [ {"type": "Feature", "properties": {"norad_id": 17070, "name": "POLAR BEAR", "group": "nnss", "lat": -58.00220963555068, "lon": -177.2269450040151, "alt_km": 1014.0476542876986, "timestamp": "2025-12-22T09:53:37.670265+00:00", "meta": {"OBJECT_NAME": "POLAR BEAR", "OBJECT_ID": "1986-088A", "EPOCH": "2025-12-21T18:30:42.261408", "MEAN_MOTION": 13.752526, "ECCENTRICITY": 0.0041288, "INCLINATION": 89.6171, "RA_OF_ASC_NODE": 183.4121, "ARG_OF_PERICENTER": 93.2514, "MEAN_ANOMALY": 277.8554, "EPHEMERIS_TYPE": 0, "CLASSIFICATION_TYPE": "U", "NORAD_CAT_ID": 17070, "ELEMENT_SET_NO": 999, "REV_AT_EPOCH": 96103, "BSTAR": 8.9705e-05, "MEAN_MOTION_DOT": 9.8e-07, "MEAN_MOTION_DDOT": 0}, "tle": {"line1": "1 17070U 86088A   25355.77132247  .00000098  00000+0  89705-4 0  9997", "line2": "2 17070  89.6171 183.4121 0041288  93.2514 277.8554 13.75252600961034"}}, "geometry": {"type": "Point", "coordinates": [-177.2269450040151, -58.00220963555068]}}, {"type": "Feature", "properties": {"norad_id": 18361, "name": "OSCAR 27", "group": "nnss", "lat": -45.273690830279726, "lon": -100.74354669145632, "alt_km": 1030.0572850380695, "timestamp": "2025-12-22T09:53:37.670275+00:00", "meta": {"OBJECT_NAME": "OSCAR 27", "OBJECT_ID": "1987-080A", "EPOCH": "2025-12-22T03:25:18.933600", "MEAN_MOTION": 13.44908544, "ECCENTRICITY": 0.0103693, "INCLINATION": 90.3738, "RA_OF_ASC_NODE": 79.624, "ARG_OF_PERICENTER": 196.6975, "MEAN_ANOMALY": 163.075, "EPHEMERIS_TYPE": 0, "CLASSIFICATION_TYPE": "U", "NORAD_CAT_ID": 18361, "ELEMENT_SET_NO": 999, "REV_AT_EPOCH": 87683, "BSTAR": 0.0001761, "MEAN_MOTION_DOT": 1.15e-06, "MEAN_MOTION_DDOT": 0}, "tle": {"line1": "1 18361U 87080A   25356.14258025  .00000115  00000+0  17610-3 0  9994", "line2": "2 18361  90.3738  79.6240 0103693 196.6975 163.0750 13.44908544876830"}}, "geometry": {"type": "Point", "coordinates": [-100.74354669145632, -45.273690830279726]}}, {"type": "Feature", "properties": {"norad_id": 18362, "name": "OSCAR 29", "group": "nnss", "lat": -40.99398261027463, "lon": -100.23236512017985, "alt_km": 1021.2694169662327, "timestamp": "2025-12-22T09:53:37.670285+00:00", "meta": {"OBJECT_NAME": "OSCAR 29", "OBJECT_ID": "1987-080B", "EPOCH": "2025-12-22T03:31:04.950048", "MEAN_MOTION": 13.44450135, "ECCENTRICITY": 0.0104522, "INCLINATION": 90.375, "RA_OF_ASC_NODE": 80.0838, "ARG_OF_PERICENTER": 219.9115, "MEAN_ANOMALY": 155.9322, "EPHEMERIS_TYPE": 0, "CLASSIFICATION_TYPE": "U", "NORAD_CAT_ID": 18362, "ELEMENT_SET_NO": 999, "REV_AT_EPOCH": 87636, "BSTAR": 0.0001781, "MEAN_MOTION_DOT": 1.15e-06, "MEAN_MOTION_DDOT": 0}, "tle": {"line1": "1 18362U 87080B   25356.14658507  .00000115  00000+0  17810-3 0  9996", "line2": "2 18362  90.3750  80.0838 0104522 219.9115 155.9322 13.44450135876362"}}, "geometry": {"type": "Point", "coordinates": [-100.23236512017985, -40.99398261027463]}}, {"type": "Feature", "properties": {"norad_id": 19070, "name": "OSCAR 23", "group": "nnss", "lat": 43.70120926779578, "lon": -163.00159672634834, "alt_km": 1014.0386306497103, "timestamp": "2025-12-22T09:53:37.670296+00:00", "meta": {"OBJECT_NAME": "OSCAR 23", "OBJECT_ID": "1988-033A", "EPOCH": "2025-12-22T02:04:42.087072", "MEAN_MOTION": 13.27788655, "ECCENTRICITY": 0.019028, "INCLINATION": 90.3203, "RA_OF_ASC_NODE": 16.682, "ARG_OF_PERICENTER": 153.9822, "MEAN_ANOMALY": 227.1802, "EPHEMERIS_TYPE": 0, "CLASSIFICATION_TYPE": "U", "NORAD_CAT_ID": 19070, "ELEMENT_SET_NO": 999, "REV_AT_EPOCH": 82377, "BSTAR": 0.00012926, "MEAN_MOTION_DOT": 7.4e-07, "MEAN_MOTION_DDOT": 0}, "tle": {"line1": "1 19070U 88033A   25356.08659823  .00000074  00000+0  12926-3 0  9994", "line2": "2 19070  90.3203  16.6820 0190280 153.9822 227.1802 13.27788655823770"}}, "geometry": {"type": "Point", "coordinates": [-163.00159672634834, 43.70120926779578]}}, {"type": "Feature", "properties": {"norad_id": 19071, "name": "OSCAR 32", "group": "nnss", "lat": -74.96293460885578, "lon": -164.3706262465411, "alt_km": 1219.7474020163781, "timestamp": "2025-12-22T09:53:37.670306+00:00", "meta": {"OBJECT_NAME": "OSCAR 32", "OBJECT_ID": "1988-033B", "EPOCH": "2025-12-21T19:01:45.302016", "MEAN_MOTION": 13.27955349, "ECCENTRICITY": 0.0189028, "INCLINATION": 90.3209, "RA_OF_ASC_NODE": 16.8054, "ARG_OF_PERICENTER": 141.7111, "MEAN_ANOMALY": 32.0527, "EPHEMERIS_TYPE": 0, "CLASSIFICATION_TYPE": "U", "NORAD_CAT_ID": 19071, "ELEMENT_SET_NO": 999, "REV_AT_EPOCH": 82385, "BSTAR": 0.00015275, "MEAN_MOTION_DOT": 8.6e-07, "MEAN_MOTION_DDOT": 0}, "tle": {"line1": "1 19071U 88033B   25355.79288544  .00000086  00000+0  15275-3 0  9993", "line2": "2 19071  90.3209  16.8054 0189028 141.7111  32.0527 13.27955349823854"}}, "geometry": {"type": "Point", "coordinates": [-164.3706262465411, -74.96293460885578]}}, {"type": "Feature", "properties": {"norad_id": 19223, "name": "NOVA 2", "group": "nnss", "lat": -84.64827876815065, "lon": 78.11940557865012, "alt_km": 1175.0407868858392, "timestamp": "2025-12-22T09:53:37.670316+00:00", "meta": {"OBJECT_NAME": "NOVA 2", "OBJECT_ID": "1988-052A", "EPOCH": "2025-12-21T16:47:58.494048", "MEAN_MOTION": 13.22936781, "ECCENTRICITY": 0.0029831, "INCLINATION": 89.9868, "RA_OF_ASC_NODE": 78.2613, "ARG_OF_PERICENTER": 352.1473, "MEAN_ANOMALY": 133.3245, "EPHEMERIS_TYPE": 0, "CLASSIFICATION_TYPE": "U", "NORAD_CAT_ID": 19223, "ELEMENT_SET_NO": 999, "REV_AT_EPOCH": 81066, "BSTAR": 0.00012945, "MEAN_MOTION_DOT": 6.3e-07, "MEAN_MOTION_DDOT": 0}, "tle": {"line1": "1 19223U 88052A   25355.69998257  .00000063  00000+0  12945-3 0  9997", "line2": "2 19223  89.9868  78.2613 0029831 352.1473 133.3245 13.22936781810666"}}, "geometry": {"type": "Point", "coordinates": [78.11940557865012, -84.64827876815065]}}, {"type": "Feature", "properties": {"norad_id": 19419, "name": "OSCAR 25", "group": "nnss", "lat": -42.51716135259697, "lon": 20.30656592401174, "alt_km": 1117.4816595564453, "timestamp": "2025-12-22T09:53:37.670326+00:00", "meta": {"OBJECT_NAME": "OSCAR 25", "OBJECT_ID": "1988-074A", "EPOCH": "2025-12-21T20:39:59.584320", "MEAN_MOTION": 13.42625, "ECCENTRICITY": 0.009496, "INCLINATION": 90.0337, "RA_OF_ASC_NODE": 20.2738, "ARG_OF_PERICENTER": 219.4473, "MEAN_ANOMALY": 314.7401, "EPHEMERIS_TYPE": 0, "CLASSIFICATION_TYPE": "U", "NORAD_CAT_ID": 19419, "ELEMENT_SET_NO": 999, "REV_AT_EPOCH": 82762, "BSTAR": 0.00014504, "MEAN_MOTION_DOT": 9.3e-07, "MEAN_MOTION_DDOT": 0}, "tle": {"line1": "1 19419U 88074A   25355.86110630  .00000093  00000+0  14504-3 0  9994", "line2": "2 19419  90.0337  20.2738 0094960 219.4473 314.7401 13.42625000827626"}}, "geometry": {"type": "Point", "coordinates": [20.30656592401174, -42.51716135259697]}}, {"type": "Feature", "properties": {"norad_id": 19420, "name": "OSCAR 31", "group": "nnss", "lat": -18.78884993839489, "lon": -159.38493743177133, "alt_km": 1036.7292348993833, "timestamp": "2025-12-22T09:53:37.670336+00:00", "meta": {"OBJECT_NAME": "OSCAR 31", "OBJECT_ID": "1988-074B", "EPOCH": "2025-12-22T03:53:19.034304", "MEAN_MOTION": 13.42586261, "ECCENTRICITY": 0.0093358, "INCLINATION": 90.0353, "RA_OF_ASC_NODE": 20.6262, "ARG_OF_PERICENTER": 212.7151, "MEAN_ANOMALY": 217.5501, "EPHEMERIS_TYPE": 0, "CLASSIFICATION_TYPE": "U", "NORAD_CAT_ID": 19420, "ELEMENT_SET_NO": 999, "REV_AT_EPOCH": 82777, "BSTAR": 0.00014692, "MEAN_MOTION_DOT": 9.4e-07, "MEAN_MOTION_DDOT": 0}, "tle": {"line1": "1 19420U 88074B   25356.16202586  .00000094  00000+0  14692-3 0  9991", "line2": "2 19420  90.0353  20.6262 0093358 212.7151 217.5501 13.42586261827773"}}, "geometry": {"type": "Point", "coordinates": [-159.38493743177133, -18.78884993839489]}}]}